ONEWEB-0264             
1 48982U 21060R   24034.56689652  .00000026  00000+0  33697-4 0  9999
2 48982  87.9048  40.8627 0001934  88.0195 272.1157 13.16593098125822
ONEWEB-0266             
1 48984U 21060T   24034.51227070  .00000012  00000+0 -25639-5 0  9992
2 48984  87.9042  40.8547 0001732  87.6651 272.4678 13.16593744125804
ONEWEB-0267             
1 48985U 21060U   24034.52336223  .00000029  00000+0  41932-4 0  9995
2 48985  87.9042  40.8534 0002294  92.5355 267.6039 13.16593236125815
ONEWEB-0268             
1 48986U 21060V   24034.56769693  .00000034  00000+0  54376-4 0  9993
2 48986  87.9044  40.8502 0001982  95.7429 264.3927 13.16594943126089
ONEWEB-0269             
1 48987U 21060W   24034.54868773  .00000060  00000+0  12220-3 0  9991
2 48987  87.9048  40.8758 0001806  92.5554 267.5784 13.16595855125859
ONEWEB-0270             
1 48988U 21060X   24034.56611855  .00000016  00000+0  79774-5 0  9991
2 48988  87.9043  40.8607 0002381  80.4084 279.7315 13.16595857125892
ONEWEB-0271             
1 48989U 21060Y   24034.55343476  .00000088  00000+0  19697-3 0  9997
2 48989  87.9044  40.8382 0002275  88.1338 272.0054 13.16593191125898
ONEWEB-0272             
1 48990U 21060Z   24034.49960436 -.00000015  00000+0 -72506-4 0  9994
2 48990  87.9045  40.8759 0002171  90.8702 269.2678 13.16592928125830
